[{"OBJECT_NAME":"STARLINK-31723","OBJECT_ID":"2024-074V","EPOCH":"2026-03-09T03:50:56.291136","MEAN_MOTION":15.27587631,"ECCENTRICITY":0.00013702,"INCLINATION":43.0038,"RA_OF_ASC_NODE":346.4895,"ARG_OF_PERICENTER":262.8323,"MEAN_ANOMALY":97.2372,"EPHEMERIS_TYPE":0,"CLASSIFICATION_TYPE":"U","NORAD_CAT_ID":59553,"ELEMENT_SET_NO":999,"REV_AT_EPOCH":10593,"BSTAR":-5.2543731e-5,"MEAN_MOTION_DOT":-1.708e-5,"MEAN_MOTION_DDOT":0},{"OBJECT_NAME":"KUIPER-00183","OBJECT_ID":"2025-301F","EPOCH":"2026-03-09T22:00:01.999584","MEAN_MOTION":15.28555387,"ECCENTRICITY":0.00143222,"INCLINATION":51.8667,"RA_OF_ASC_NODE":65.0366,"ARG_OF_PERICENTER":58.1585,"MEAN_ANOMALY":99.3056,"EPHEMERIS_TYPE":0,"CLASSIFICATION_TYPE":"U","NORAD_CAT_ID":67138,"ELEMENT_SET_NO":999,"REV_AT_EPOCH":583,"BSTAR":-0.054814766,"MEAN_MOTION_DOT":-0.01408357,"MEAN_MOTION_DDOT":0}]
